NORAD_CAT_ID,OBJECT_NAME,OBJECT_TYPE,EPOCH,MEAN_MOTION,ECCENTRICITY,INCLINATION,RA_OF_ASC_NODE,ARG_OF_PERICENTER,MEAN_ANOMALY,BSTAR,MEAN_MOTION_DOT,MEAN_MOTION_DDOT,TLE_LINE0,TLE_LINE1,TLE_LINE2,SEMIMAJOR_AXIS,PERIOD,APOGEE,PERIGEE,DECAYED
54199.0,STARLINK-5244,PAYLOAD,2023-04-19 06:01:57,15.08839806,0.0001032,53.2203,52.0857,98.2552,261.8557,0.00012887,1.764e-05,0.0,0 STARLINK-5244,1 54199U 22141AU  23109.25136324  .00001764  00000-0  12887-3 0  9996,2 54199  53.2203  52.0857 0001032  98.2552 261.8557 15.08839806 26661,6917.881,95.438,540.46,539.032,0.0
54199.0,STARLINK-5244,PAYLOAD,2023-04-20 04:17:21,15.08856933,0.0001015,53.2201,47.9238,105.6053,254.5052,-0.00010859,-2.016e-05,0.0,0 STARLINK-5244,1 54199U 22141AU  23110.17871596 -.00002016  00000-0 -10859-3 0  9996,2 54199  53.2201  47.9238 0001015 105.6053 254.5052 15.08856933 26800,6917.829,95.436,540.396,538.991,0.0
54199.0,STARLINK-5244,PAYLOAD,2023-04-21 04:08:09,15.08834825,0.0001154,53.2197,43.4634,92.6864,267.4261,-8.7506e-05,-1.68e-05,0.0,0 STARLINK-5244,1 54199U 22141AU  23111.17233146 -.00001680  00000-0 -87506-4 0  9990,2 54199  53.2197  43.4634 0001154  92.6864 267.4261 15.08834825 27187,6917.896,95.438,540.56,538.963,0.0
54199.0,STARLINK-5244,PAYLOAD,2023-04-21 12:05:04,15.08841072,0.0001093,53.22,41.9778,93.1923,266.9194,-7.3476e-05,-1.457e-05,0.0,0 STARLINK-5244,1 54199U 22141AU  23111.50352726 -.00001457  00000-0 -73476-4 0  9996,2 54199  53.2200  41.9778 0001093  93.1923 266.9194 15.08841072 27000,6917.877,95.437,540.498,538.986,0.0
54199.0,STARLINK-5244,PAYLOAD,2023-04-21 20:02:00,15.08839901,0.0001031,53.2195,40.491,109.1986,250.9118,-4.2354e-05,-9.62e-06,0.0,0 STARLINK-5244,1 54199U 22141AU  23111.83472886 -.00000962  00000-0 -42354-4 0  9993,2 54199  53.2195  40.4910 0001031 109.1986 250.9118 15.08839901 27056,6917.881,95.438,540.459,539.032,0.0
54199.0,STARLINK-5244,PAYLOAD,2023-04-22 02:23:32,15.08847664,9.84e-05,53.2188,39.3023,112.8297,247.2799,9.906e-06,-1.3e-06,0.0,0 STARLINK-5244,1 54199U 22141AU  23112.09967999 -.00000130  00000-0  99060-5 0  9999,2 54199  53.2188  39.3023 0000984 112.8297 247.2799 15.08847664 27321,6917.857,95.437,540.403,539.041,0.0
54199.0,STARLINK-5244,PAYLOAD,2023-04-22 03:58:55,15.08852336,0.0001038,53.2195,39.0043,108.9759,251.1346,5.0831e-05,5.22e-06,0.0,0 STARLINK-5244,1 54199U 22141AU  23112.16591561  .00000522  00000-0  50831-4 0  9991,2 54199  53.2195  39.0043 0001038 108.9759 251.1346 15.08852336 27108,6917.843,95.437,540.426,538.99,0.0
54199.0,STARLINK-5244,PAYLOAD,2023-04-22 18:17:23,15.08843966,0.0001025,53.2182,36.3287,115.9376,244.1722,6.1842e-05,6.97e-06,0.0,0 STARLINK-5244,1 54199U 22141AU  23112.76208071  .00000697  00000-0  61842-4 0  9995,2 54199  53.2182  36.3287 0001025 115.9376 244.1722 15.08843966 27191,6917.868,95.437,540.442,539.024,0.0
54199.0,STARLINK-5244,PAYLOAD,2023-04-23 05:25:05,15.08848011,0.0001031,53.2181,34.2474,117.1673,242.9425,7.805e-05,9.55e-06,0.0,0 STARLINK-5244,1 54199U 22141AU  23113.22575532  .00000955  00000-0  78050-4 0  9992,2 54199  53.2181  34.2474 0001031 117.1673 242.9425 15.08848011 27266,6917.856,95.437,540.434,539.008,0.0
54199.0,STARLINK-5244,PAYLOAD,2023-04-24 03:40:28,15.08864866,0.0001037,53.2188,30.0841,99.8992,260.2117,0.00011018,1.467e-05,0.0,0 STARLINK-5244,1 54199U 22141AU  23114.15310548  .00001467  00000-0  11018-3 0  9998,2 54199  53.2188  30.0841 0001037  99.8992 260.2117 15.08864866 27639,6917.804,95.436,540.387,538.952,0.0
54199.0,STARLINK-5244,PAYLOAD,2023-04-25 00:20:27,15.08871765,0.0001096,53.2193,26.2162,101.0938,259.0178,0.00013119,1.802e-05,0.0,0 STARLINK-5244,1 54199U 22141AU  23115.01420566  .00001802  00000-0  13119-3 0  9993,2 54199  53.2193  26.2162 0001096 101.0938 259.0178 15.08871765 27537,6917.783,95.436,540.406,538.89,0.0
54199.0,STARLINK-5244,PAYLOAD,2023-04-26 04:57:30,15.08802751,0.0001148,53.2186,20.8674,80.708,279.4042,-0.00050119,-8.247e-05,0.0,0 STARLINK-5244,1 54199U 22141AU  23116.20659845 -.00008247  00000-0 -50119-3 0  9992,2 54199  53.2186  20.8674 0001148  80.7080 279.4042 15.08802751 27711,6917.994,95.44,540.653,539.065,0.0
54199.0,STARLINK-5244,PAYLOAD,2023-04-26 20:51:19,15.08839246,0.0001119,53.2186,17.8937,88.8841,271.228,-0.00028733,-4.858e-05,0.0,0 STARLINK-5244,1 54199U 22141AU  23116.86897282 -.00004858  00000-0 -28733-3 0  9994,2 54199  53.2186  17.8937 0001119  88.8841 271.2280 15.08839246 27815,6917.883,95.438,540.522,538.974,0.0
54199.0,STARLINK-5244,PAYLOAD,2023-04-27 03:12:51,15.0884253,0.0002281,53.2176,16.7012,70.5561,289.5678,-0.00018221,-3.187e-05,0.0,0 STARLINK-5244,1 54199U 22141AU  23117.13393222 -.00003187  00000-0 -18221-3 0  9995,2 54199  53.2176  16.7012 0002281  70.5561 289.5678 15.08842530 27851,6917.873,95.437,541.316,538.16,0.0
54199.0,STARLINK-5244,PAYLOAD,2023-04-28 03:03:37,15.08828306,0.0001129,53.2183,12.2424,93.7678,266.3444,0.00051273,7.879e-05,0.0,0 STARLINK-5244,1 54199U 22141AU  23118.12751953  .00007879  00000-0  51273-3 0  9998,2 54199  53.2183  12.2424 0001129  93.7678 266.3444 15.08828306 28235,6917.916,95.438,540.562,539.0,0.0
54199.0,STARLINK-5244,PAYLOAD,2023-04-28 09:25:10,15.08829693,0.0001253,53.2181,11.0521,90.0636,270.0499,0.0004232,6.452e-05,0.0,0 STARLINK-5244,1 54199U 22141AU  23118.39248513  .00006452  00000-0  42320-3 0  9999,2 54199  53.2181  11.0521 0001253  90.0636 270.0499 15.08829693 28041,6917.912,95.438,540.644,538.91,0.0
54199.0,STARLINK-5244,PAYLOAD,2023-04-29 02:54:25,15.08844467,0.0001122,53.2183,7.7827,101.2672,258.8446,-1.4119e-05,-5.13e-06,0.0,0 STARLINK-5244,1 54199U 22141AU  23119.12113098 -.00000513  00000-0 -14119-4 0  9990,2 54199  53.2183   7.7827 0001122 101.2672 258.8446 15.08844467 28383,6917.867,95.437,540.508,538.956,0.0
54199.0,STARLINK-5244,PAYLOAD,2023-04-30 02:45:12,15.08850342,0.000113,53.2183,3.3214,95.0898,265.0223,-8.2694e-05,-1.604e-05,0.0,0 STARLINK-5244,1 54199U 22141AU  23120.11472724 -.00001604  00000-0 -82694-4 0  9990,2 54199  53.2183   3.3214 0001130  95.0898 265.0223 15.08850342 28308,6917.849,95.437,540.495,538.932,0.0
54199.0,STARLINK-5244,PAYLOAD,2023-04-30 20:14:27,15.08829366,0.0001063,53.2182,0.0504,87.2634,272.848,7.1974e-05,8.58e-06,0.0,0 STARLINK-5244,1 54199U 22141AU  23120.84337397  .00000858  00000-0  71974-4 0  9993,2 54199  53.2182   0.0504 0001063  87.2634 272.8480 15.08829366 28649,6917.913,95.438,540.513,539.043,0.0
54199.0,STARLINK-5244,PAYLOAD,2023-04-30 23:25:13,15.08838321,0.000114,53.2176,359.4548,101.2067,258.9053,2.2796e-05,7.5e-07,0.0,0 STARLINK-5244,1 54199U 22141AU  23120.97585038  .00000075  00000-0  22796-4 0  9993,2 54199  53.2176 359.4548 0001140 101.2067 258.9053 15.08838321 28668,6917.886,95.438,540.539,538.962,0.0
54199.0,STARLINK-5244,PAYLOAD,2023-05-01 21:40:37,15.0882616,0.0001153,53.2183,355.2923,84.5126,275.5997,0.00013907,1.925e-05,0.0,0 STARLINK-5244,1 54199U 22141AU  23121.90321683  .00001925  00000-0  13907-3 0  9999,2 54199  53.2183 355.2923 0001153  84.5126 275.5997 15.08826160 28570,6917.923,95.438,540.585,538.99,0.0
54199.0,STARLINK-5244,PAYLOAD,2023-05-01 23:16:00,15.0883864,0.0001121,53.2184,354.9951,83.5082,276.6038,1.6831e-05,-2e-07,0.0,0 STARLINK-5244,1 54199U 22141AU  23121.96945338 -.00000020  00000-0  16831-4 0  9990,2 54199  53.2184 354.9951 0001121  83.5082 276.6038 15.08838640 28588,6917.885,95.438,540.525,538.974,0.0
54199.0,STARLINK-5244,PAYLOAD,2023-05-02 21:31:23,15.08845097,0.0001073,53.218,350.8326,94.7214,265.3901,6.4109e-05,7.33e-06,0.0,0 STARLINK-5244,1 54199U 22141AU  23122.89680543  .00000733  00000-0  64109-4 0  9998,2 54199  53.2180 350.8326 0001073  94.7214 265.3901 15.08845097 28726,6917.865,95.437,540.472,538.988,0.0
54199.0,STARLINK-5244,PAYLOAD,2023-05-03 00:42:09,15.08849943,0.0001175,53.2182,350.2367,93.7818,266.3309,0.00010432,1.373e-05,0.0,0 STARLINK-5244,1 54199U 22141AU  23123.02928041  .00001373  00000-0  10432-3 0  9992,2 54199  53.2182 350.2367 0001175  93.7818 266.3309 15.08849943 28973,6917.85,95.437,540.528,538.902,0.0
54199.0,STARLINK-5244,PAYLOAD,2023-05-03 08:39:06,15.08838017,0.0001082,53.2193,348.7482,112.8056,247.3051,1.8871e-05,1.3e-07,0.0,0 STARLINK-5244,1 54199U 22141AU  23123.36048821  .00000013  00000-0  18871-4 0  9994,2 54199  53.2193 348.7482 0001082 112.8056 247.3051 15.08838017 29029,6917.886,95.438,540.5,539.003,0.0
54199.0,STARLINK-5244,PAYLOAD,2023-05-03 21:22:11,15.08838628,0.0001246,53.2183,346.3695,123.463,236.6481,-2.6837e-05,-7.15e-06,0.0,0 STARLINK-5244,1 54199U 22141AU  23123.89041093 -.00000715  00000-0 -26837-4 0  9998,2 54199  53.2183 346.3695 0001246 123.4630 236.6481 15.08838628 28874,6917.885,95.438,540.612,538.888,0.0
54199.0,STARLINK-5244,PAYLOAD,2023-05-03 22:57:34,15.08839198,0.0001238,53.2181,346.0732,113.9954,246.1167,-2.2831e-05,-6.51e-06,0.0,0 STARLINK-5244,1 54199U 22141AU  23123.95665105 -.00000651  00000-0 -22831-4 0  9990,2 54199  53.2181 346.0732 0001238 113.9954 246.1167 15.08839198 28886,6917.883,95.438,540.604,538.891,0.0
54199.0,STARLINK-5244,PAYLOAD,2023-05-04 21:12:58,15.08845451,0.0001142,53.2172,341.9134,89.771,270.3413,-8.3953e-05,-1.624e-05,0.0,0 STARLINK-5244,1 54199U 22141AU  23124.88401122 -.00001624  00000-0 -83953-4 0  9993,2 54199  53.2172 341.9134 0001142  89.7710 270.3413 15.08845451 29254,6917.864,95.437,540.519,538.939,0.0
54199.0,STARLINK-5244,PAYLOAD,2023-05-05 21:03:44,15.08849304,9.41e-05,53.2172,337.4524,95.875,264.235,0.00016178,2.289e-05,0.0,0 STARLINK-5244,1 54199U 22141AU  23125.87760046  .00002289  00000-0  16178-3 0  9996,2 54199  53.2172 337.4524 0000941  95.8750 264.2350 15.08849304 29405,6917.852,95.437,540.368,539.066,0.0
54199.0,STARLINK-5244,PAYLOAD,2023-05-06 00:14:30,15.08855654,9.91e-05,53.2172,336.8572,93.9942,266.1164,0.00015905,2.245e-05,0.0,0 STARLINK-5244,1 54199U 22141AU  23126.01007501  .00002245  00000-0  15905-3 0  9992,2 54199  53.2172 336.8572 0000991  93.9942 266.1164 15.08855654 29193,6917.833,95.437,540.383,539.012,0.0
